{"type": "FeatureCollection", "features": [ {"type": "Feature", "properties": {"norad_id": 35982, "name": "COSMOS 2251 DEB", "group": "cosmos-2251-debris", "lat": 40.41851686839466, "lon": -27.433692051332127, "alt_km": 638.0719721445403, "timestamp": "2025-12-27T14:26:30.918377+00:00", "meta": {"OBJECT_NAME": "COSMOS 2251 DEB", "OBJECT_ID": "1993-036AVY", "EPOCH": "2025-12-27T04:24:12.024000", "MEAN_MOTION": 14.62841816, "ECCENTRICITY": 0.00646581, "INCLINATION": 74.0588, "RA_OF_ASC_NODE": 319.2785, "ARG_OF_PERICENTER": 21.4972, "MEAN_ANOMALY": 338.8887, "EPHEMERIS_TYPE": 0, "CLASSIFICATION_TYPE": "U", "NORAD_CAT_ID": 35982, "ELEMENT_SET_NO": 999, "REV_AT_EPOCH": 86377, "BSTAR": 0.00083484035, "MEAN_MOTION_DOT": 4.366e-05, "MEAN_MOTION_DDOT": 0}, "tle": {"line1": "1 35982U 93036AVY 25361.18347250  .00004366  00000+0  83484-3 0  9993", "line2": "2 35982  74.0588 319.2785 0064658  21.4972 338.8887 14.62841816863777"}}, "geometry": {"type": "Point", "coordinates": [-27.433692051332127, 40.41851686839466]}}, {"type": "Feature", "properties": {"norad_id": 35987, "name": "COSMOS 2251 DEB", "group": "cosmos-2251-debris", "lat": 61.86938998531301, "lon": -28.564890182617717, "alt_km": 708.5767330654126, "timestamp": "2025-12-27T14:26:30.918387+00:00", "meta": {"OBJECT_NAME": "COSMOS 2251 DEB", "OBJECT_ID": "1993-036AWD", "EPOCH": "2025-12-27T02:29:30.400512", "MEAN_MOTION": 14.43218044, "ECCENTRICITY": 0.00464782, "INCLINATION": 73.9999, "RA_OF_ASC_NODE": 299.9031, "ARG_OF_PERICENTER": 61.1887, "MEAN_ANOMALY": 299.3924, "EPHEMERIS_TYPE": 0, "CLASSIFICATION_TYPE": "U", "NORAD_CAT_ID": 35987, "ELEMENT_SET_NO": 999, "REV_AT_EPOCH": 61272, "BSTAR": 0.0012323895, "MEAN_MOTION_DOT": 4.175e-05, "MEAN_MOTION_DDOT": 0}, "tle": {"line1": "1 35987U 93036AWD 25361.10382408  .00004175  00000+0  12324-2 0  9996", "line2": "2 35987  73.9999 299.9031 0046478  61.1887 299.3924 14.43218044612720"}}, "geometry": {"type": "Point", "coordinates": [-28.564890182617717, 61.86938998531301]}}, {"type": "Feature", "properties": {"norad_id": 35989, "name": "COSMOS 2251 DEB", "group": "cosmos-2251-debris", "lat": 30.953101223975743, "lon": 66.61953702700113, "alt_km": 781.9407900881097, "timestamp": "2025-12-27T14:26:30.918397+00:00", "meta": {"OBJECT_NAME": "COSMOS 2251 DEB", "OBJECT_ID": "1993-036AWF", "EPOCH": "2025-12-24T23:56:32.042112", "MEAN_MOTION": 14.37117846, "ECCENTRICITY": 0.00225269, "INCLINATION": 74.0381, "RA_OF_ASC_NODE": 261.2904, "ARG_OF_PERICENTER": 340.4505, "MEAN_ANOMALY": 19.5782, "EPHEMERIS_TYPE": 0, "CLASSIFICATION_TYPE": "U", "NORAD_CAT_ID": 35989, "ELEMENT_SET_NO": 999, "REV_AT_EPOCH": 87355, "BSTAR": 0.00020115023, "MEAN_MOTION_DOT": 5.73e-06, "MEAN_MOTION_DDOT": 0}, "tle": {"line1": "1 35989U 93036AWF 25358.99759308  .00000573  00000+0  20115-3 0  9994", "line2": "2 35989  74.0381 261.2904 0022526 340.4505  19.5782 14.37117846873553"}}, "geometry": {"type": "Point", "coordinates": [66.61953702700113, 30.953101223975743]}}, {"type": "Feature", "properties": {"norad_id": 35993, "name": "COSMOS 2251 DEB", "group": "cosmos-2251-debris", "lat": 73.19006567270088, "lon": 52.57212262814897, "alt_km": 651.797684691227, "timestamp": "2025-12-27T14:26:30.918408+00:00", "meta": {"OBJECT_NAME": "COSMOS 2251 DEB", "OBJECT_ID": "1993-036AWK", "EPOCH": "2025-12-21T03:59:29.501088", "MEAN_MOTION": 14.65356197, "ECCENTRICITY": 0.0028516, "INCLINATION": 74.0154, "RA_OF_ASC_NODE": 316.5577, "ARG_OF_PERICENTER": 143.4068, "MEAN_ANOMALY": 216.9056, "EPHEMERIS_TYPE": 0, "CLASSIFICATION_TYPE": "U", "NORAD_CAT_ID": 35993, "ELEMENT_SET_NO": 999, "REV_AT_EPOCH": 60566, "BSTAR": 0.00046927088, "MEAN_MOTION_DOT": 2.519e-05, "MEAN_MOTION_DDOT": 0}, "tle": {"line1": "1 35993U 93036AWK 25355.16631367  .00002519  00000+0  46927-3 0  9990", "line2": "2 35993  74.0154 316.5577 0028516 143.4068 216.9056 14.65356197605663"}}, "geometry": {"type": "Point", "coordinates": [52.57212262814897, 73.19006567270088]}}, {"type": "Feature", "properties": {"norad_id": 35996, "name": "COSMOS 2251 DEB", "group": "cosmos-2251-debris", "lat": 9.406356727779757, "lon": 75.46601984325078, "alt_km": 591.465860095168, "timestamp": "2025-12-27T14:26:30.918418+00:00", "meta": {"OBJECT_NAME": "COSMOS 2251 DEB", "OBJECT_ID": "1993-036AWN", "EPOCH": "2025-12-15T22:25:06.327264", "MEAN_MOTION": 15.09228347, "ECCENTRICITY": 0.00876626, "INCLINATION": 74.0159, "RA_OF_ASC_NODE": 96.8248, "ARG_OF_PERICENTER": 187.0066, "MEAN_ANOMALY": 172.9909, "EPHEMERIS_TYPE": 0, "CLASSIFICATION_TYPE": "U", "NORAD_CAT_ID": 35996, "ELEMENT_SET_NO": 999, "REV_AT_EPOCH": 72374, "BSTAR": 0.00054952121, "MEAN_MOTION_DOT": 9.536e-05, "MEAN_MOTION_DDOT": 0}, "tle": {"line1": "1 35996U 93036AWN 25349.93410101  .00009536  00000+0  54952-3 0  9995", "line2": "2 35996  74.0159  96.8248 0087662 187.0066 172.9909 15.09228347723745"}}, "geometry": {"type": "Point", "coordinates": [75.46601984325078, 9.406356727779757]}}, {"type": "Feature", "properties": {"norad_id": 35997, "name": "COSMOS 2251 DEB", "group": "cosmos-2251-debris", "lat": -59.357152654935454, "lon": 8.215950847912046, "alt_km": 717.0757163053431, "timestamp": "2025-12-27T14:26:30.918428+00:00", "meta": {"OBJECT_NAME": "COSMOS 2251 DEB", "OBJECT_ID": "1993-036AWP", "EPOCH": "2025-12-26T17:28:19.417728", "MEAN_MOTION": 14.51384876, "ECCENTRICITY": 0.00153664, "INCLINATION": 74.0424, "RA_OF_ASC_NODE": 160.9776, "ARG_OF_PERICENTER": 237.5823, "MEAN_ANOMALY": 122.3852, "EPHEMERIS_TYPE": 0, "CLASSIFICATION_TYPE": "U", "NORAD_CAT_ID": 35997, "ELEMENT_SET_NO": 999, "REV_AT_EPOCH": 71087, "BSTAR": 0.00078489747, "MEAN_MOTION_DOT": 3.108e-05, "MEAN_MOTION_DDOT": 0}, "tle": {"line1": "1 35997U 93036AWP 25360.72800252  .00003108  00000+0  78490-3 0  9998", "line2": "2 35997  74.0424 160.9776 0015366 237.5823 122.3852 14.51384876710876"}}, "geometry": {"type": "Point", "coordinates": [8.215950847912046, -59.357152654935454]}}, {"type": "Feature", "properties": {"norad_id": 36005, "name": "COSMOS 2251 DEB", "group": "cosmos-2251-debris", "lat": 57.79982846453454, "lon": 93.25355790515341, "alt_km": 760.9764875546671, "timestamp": "2025-12-27T14:26:30.918438+00:00", "meta": {"OBJECT_NAME": "COSMOS 2251 DEB", "OBJECT_ID": "1993-036AWX", "EPOCH": "2025-12-27T04:12:06.060960", "MEAN_MOTION": 14.47379938, "ECCENTRICITY": 0.00614172, "INCLINATION": 74.0269, "RA_OF_ASC_NODE": 66.9975, "ARG_OF_PERICENTER": 201.271, "MEAN_ANOMALY": 158.5895, "EPHEMERIS_TYPE": 0, "CLASSIFICATION_TYPE": "U", "NORAD_CAT_ID": 36005, "ELEMENT_SET_NO": 999, "REV_AT_EPOCH": 87793, "BSTAR": 0.00021121944, "MEAN_MOTION_DOT": 7.64e-06, "MEAN_MOTION_DDOT": 0}, "tle": {"line1": "1 36005U 93036AWX 25361.17507015  .00000764  00000+0  21122-3 0  9995", "line2": "2 36005  74.0269  66.9975 0061417 201.2710 158.5895 14.47379938877938"}}, "geometry": {"type": "Point", "coordinates": [93.25355790515341, 57.79982846453454]}}, {"type": "Feature", "properties": {"norad_id": 36045, "name": "COSMOS 2251 DEB", "group": "cosmos-2251-debris", "lat": -63.47617354016479, "lon": -114.48425864193233, "alt_km": 696.7214260431492, "timestamp": "2025-12-27T14:26:30.918448+00:00", "meta": {"OBJECT_NAME": "COSMOS 2251 DEB", "OBJECT_ID": "1993-036AXG", "EPOCH": "2025-12-25T18:51:09.820512", "MEAN_MOTION": 14.70126783, "ECCENTRICITY": 0.00481863, "INCLINATION": 73.7639, "RA_OF_ASC_NODE": 33.3725, "ARG_OF_PERICENTER": 42.7479, "MEAN_ANOMALY": 317.7422, "EPHEMERIS_TYPE": 0, "CLASSIFICATION_TYPE": "U", "NORAD_CAT_ID": 36045, "ELEMENT_SET_NO": 999, "REV_AT_EPOCH": 8580, "BSTAR": 0.0019792392, "MEAN_MOTION_DOT": 0.00012107, "MEAN_MOTION_DDOT": 0}, "tle": {"line1": "1 36045U 93036AXG 25359.78553033  .00012107  00000+0  19792-2 0  9997", "line2": "2 36045  73.7639  33.3725 0048186  42.7479 317.7422 14.70126783 85804"}}, "geometry": {"type": "Point", "coordinates": [-114.48425864193233, -63.47617354016479]}}, {"type": "Feature", "properties": {"norad_id": 36046, "name": "COSMOS 2251 DEB", "group": "cosmos-2251-debris", "lat": 54.85642339139614, "lon": -88.1081516934124, "alt_km": 635.4939531060718, "timestamp": "2025-12-27T14:26:30.918458+00:00", "meta": {"OBJECT_NAME": "COSMOS 2251 DEB", "OBJECT_ID": "1993-036AXH", "EPOCH": "2025-12-26T11:06:22.807872", "MEAN_MOTION": 14.65349248, "ECCENTRICITY": 0.0056191, "INCLINATION": 74.0154, "RA_OF_ASC_NODE": 250.057, "ARG_OF_PERICENTER": 32.301, "MEAN_ANOMALY": 139.7691, "EPHEMERIS_TYPE": 0, "CLASSIFICATION_TYPE": "U", "NORAD_CAT_ID": 36046, "ELEMENT_SET_NO": 999, "REV_AT_EPOCH": 64204, "BSTAR": 0.00051321, "MEAN_MOTION_DOT": 2.805e-05, "MEAN_MOTION_DDOT": 0}, "tle": {"line1": "1 36046U 93036AXH 25360.46276398  .00002805  00000+0  51321-3 0  9990", "line2": "2 36046  74.0154 250.0570 0056191  32.3010 139.7691 14.65349248642040"}}, "geometry": {"type": "Point", "coordinates": [-88.1081516934124, 54.85642339139614]}}, {"type": "Feature", "properties": {"norad_id": 36047, "name": "COSMOS 2251 DEB", "group": "cosmos-2251-debris", "lat": -26.5117531241411, "lon": 132.33712606149078, "alt_km": 585.5705942636732, "timestamp": "2025-12-27T14:26:30.918469+00:00", "meta": {"OBJECT_NAME": "COSMOS 2251 DEB", "OBJECT_ID": "1993-036AXJ", "EPOCH": "2025-12-21T21:08:53.075040", "MEAN_MOTION": 14.96393257, "ECCENTRICITY": 0.000841, "INCLINATION": 74.036, "RA_OF_ASC_NODE": 315.6865, "ARG_OF_PERICENTER": 344.906, "MEAN_ANOMALY": 15.1873, "EPHEMERIS_TYPE": 0, "CLASSIFICATION_TYPE": "U", "NORAD_CAT_ID": 36047, "ELEMENT_SET_NO": 999, "REV_AT_EPOCH": 66076, "BSTAR": 0.0028311075, "MEAN_MOTION_DOT": 0.00032218, "MEAN_MOTION_DDOT": 0}, "tle": {"line1": "1 36047U 93036AXJ 25355.88116985  .00032218  00000+0  28311-2 0  9999", "line2": "2 36047  74.0360 315.6865 0008410 344.9060  15.1873 14.96393257660764"}}, "geometry": {"type": "Point", "coordinates": [132.33712606149078, -26.5117531241411]}}]}